[{"CCSDS_OMM_VERS":"2.0","COMMENT":"GENERATED VIA SPACE-TRACK.ORG API","CREATION_DATE":"2004-08-15T23:35:38","ORIGINATOR":"18 SPCS","OBJECT_NAME":"COSMOS 57 DEB","OBJECT_ID":"1965-012BB","CENTER_NAME":"EARTH","REF_FRAME":"TEME","TIME_SYSTEM":"UTC","MEAN_ELEMENT_THEORY":"SGP4","EPOCH":"1965-03-08T02:06:13.601951","MEAN_MOTION":"15.82322639","ECCENTRICITY":"0.02303290","INCLINATION":"64.6679","RA_OF_ASC_NODE":"251.3609","ARG_OF_PERICENTER":"66.5632","MEAN_ANOMALY":"295.8424","EPHEMERIS_TYPE":"0","CLASSIFICATION_TYPE":"U","NORAD_CAT_ID":"1147","ELEMENT_SET_NO":"999","REV_AT_EPOCH":"217","BSTAR":"0.00000000000000","MEAN_MOTION_DOT":"0.00601669","MEAN_MOTION_DDOT":"0.0006942800000","SEMIMAJOR_AXIS":"6702.015","PERIOD":"91.005","APOAPSIS":"478.247","PERIAPSIS":"169.513","OBJECT_TYPE":"DEBRIS","RCS_SIZE":null,"COUNTRY_CODE":null,"LAUNCH_DATE":null,"SITE":null,"DECAY_DATE":"1965-03-17","FILE":"33911","GP_ID":"8699895","TLE_LINE0":"0 COSMOS 57 DEB","TLE_LINE1":"1 01147U 65012 BB 65067.08765743  .00601669 +69428-3 +00000-0 0  9991","TLE_LINE2":"2 01147 064.6679 251.3609 0230329 066.5632 295.8424 15.82322639002171"},{"CCSDS_OMM_VERS":"2.0","COMMENT":"GENERATED VIA SPACE-TRACK.ORG API","CREATION_DATE":"2004-08-15T23:35:38","ORIGINATOR":"18 SPCS","OBJECT_NAME":"COSMOS 57 DEB","OBJECT_ID":"1965-012DT","CENTER_NAME":"EARTH","REF_FRAME":"TEME","TIME_SYSTEM":"UTC","MEAN_ELEMENT_THEORY":"SGP4","EPOCH":"1965-03-08T06:22:11.973504","MEAN_MOTION":"16.00820661","ECCENTRICITY":"0.01782740","INCLINATION":"64.7507","RA_OF_ASC_NODE":"249.7326","ARG_OF_PERICENTER":"56.1283","MEAN_ANOMALY":"305.5552","EPHEMERIS_TYPE":"0","CLASSIFICATION_TYPE":"U","NORAD_CAT_ID":"1216","ELEMENT_SET_NO":"999","REV_AT_EPOCH":"222","BSTAR":"0.00000000000000","MEAN_MOTION_DOT":"0.00404358","MEAN_MOTION_DDOT":"0.0003855600000","SEMIMAJOR_AXIS":"6650.286","PERIOD":"89.953","APOAPSIS":"390.708","PERIAPSIS":"153.593","OBJECT_TYPE":"DEBRIS","RCS_SIZE":null,"COUNTRY_CODE":null,"LAUNCH_DATE":null,"SITE":null,"DECAY_DATE":"1965-03-17","FILE":"33911","GP_ID":"8699983","TLE_LINE0":"0 COSMOS 57 DEB","TLE_LINE1":"1 01216U 65012 DT 65067.26541636  .00404358 +38556-3 +00000-0 0  9995","TLE_LINE2":"2 01216 064.7507 249.7326 0178274 056.1283 305.5552 16.00820661002229"},{"CCSDS_OMM_VERS":"2.0","COMMENT":"GENERATED VIA SPACE-TRACK.ORG API","CREATION_DATE":"2004-08-15T23:35:38","ORIGINATOR":"18 SPCS","OBJECT_NAME":"COSMOS 57 DEB","OBJECT_ID":"1965-012FN","CENTER_NAME":"EARTH","REF_FRAME":"TEME","TIME_SYSTEM":"UTC","MEAN_ELEMENT_THEORY":"SGP4","EPOCH":"1965-03-08T12:21:30.708864","MEAN_MOTION":"15.59146553","ECCENTRICITY":"0.03320630","INCLINATION":"64.6883","RA_OF_ASC_NODE":"249.6760","ARG_OF_PERICENTER":"72.4446","MEAN_ANOMALY":"291.1654","EPHEMERIS_TYPE":"0","CLASSIFICATION_TYPE":"U","NORAD_CAT_ID":"1280","ELEMENT_SET_NO":"999","REV_AT_EPOCH":"220","BSTAR":"0.00000000000000","MEAN_MOTION_DOT":"0.00877113","MEAN_MOTION_DDOT":"0.0012171000000","SEMIMAJOR_AXIS":"6768.267","PERIOD":"92.358","APOAPSIS":"614.881","PERIAPSIS":"165.383","OBJECT_TYPE":"DEBRIS","RCS_SIZE":null,"COUNTRY_CODE":null,"LAUNCH_DATE":null,"SITE":null,"DECAY_DATE":"1965-03-24","FILE":"33911","GP_ID":"8700392","TLE_LINE0":"0 COSMOS 57 DEB","TLE_LINE1":"1 01280U 65012 FN 65067.51493876  .00877113 +12171-2 +00000-0 0  9993","TLE_LINE2":"2 01280 064.6883 249.6760 0332063 072.4446 291.1654 15.59146553002202"},{"CCSDS_OMM_VERS":"2.0","COMMENT":"GENERATED VIA SPACE-TRACK.ORG API","CREATION_DATE":"2004-08-15T23:35:38","ORIGINATOR":"18 SPCS","OBJECT_NAME":"COSMOS 57 DEB","OBJECT_ID":"1965-012AX","CENTER_NAME":"EARTH","REF_FRAME":"TEME","TIME_SYSTEM":"UTC","MEAN_ELEMENT_THEORY":"SGP4","EPOCH":"1965-03-08T20:42:58.988735","MEAN_MOTION":"15.71290947","ECCENTRICITY":"0.03316950","INCLINATION":"64.6159","RA_OF_ASC_NODE":"249.6000","ARG_OF_PERICENTER":"61.6675","MEAN_ANOMALY":"301.6611","EPHEMERIS_TYPE":"0","CLASSIFICATION_TYPE":"U","NORAD_CAT_ID":"1143","ELEMENT_SET_NO":"999","REV_AT_EPOCH":"228","BSTAR":"0.00000000000000","MEAN_MOTION_DOT":"0.00215838","MEAN_MOTION_DDOT":"0.0000809380000","SEMIMAJOR_AXIS":"6733.347","PERIOD":"91.644","APOAPSIS":"578.554","PERIAPSIS":"131.871","OBJECT_TYPE":"DEBRIS","RCS_SIZE":null,"COUNTRY_CODE":null,"LAUNCH_DATE":null,"SITE":null,"DECAY_DATE":"1965-03-20","FILE":"33911","GP_ID":"8699885","TLE_LINE0":"0 COSMOS 57 DEB","TLE_LINE1":"1 01143U 65012 AX 65067.86318274  .00215838 +80938-4 +00000-0 0  9995","TLE_LINE2":"2 01143 064.6159 249.6000 0331695 061.6675 301.6611 15.71290947002286"},{"CCSDS_OMM_VERS":"2.0","COMMENT":"GENERATED VIA SPACE-TRACK.ORG API","CREATION_DATE":"2004-08-15T23:35:38","ORIGINATOR":"18 SPCS","OBJECT_NAME":"COSMOS 57 DEB","OBJECT_ID":"1965-012BM","CENTER_NAME":"EARTH","REF_FRAME":"TEME","TIME_SYSTEM":"UTC","MEAN_ELEMENT_THEORY":"SGP4","EPOCH":"1965-03-08T23:08:45.994271","MEAN_MOTION":"16.18125151","ECCENTRICITY":"0.07678330","INCLINATION":"64.5628","RA_OF_ASC_NODE":"244.2762","ARG_OF_PERICENTER":"165.7110","MEAN_ANOMALY":"196.5884","EPHEMERIS_TYPE":"0","CLASSIFICATION_TYPE":"U","NORAD_CAT_ID":"1157","ELEMENT_SET_NO":"999","REV_AT_EPOCH":"233","BSTAR":"0.00000000000000","MEAN_MOTION_DOT":"0.05087602","MEAN_MOTION_DDOT":"0.0000000000000","SEMIMAJOR_AXIS":"6602.788","PERIOD":"88.991","APOAPSIS":"731.637","PERIAPSIS":"-282.330","OBJECT_TYPE":"DEBRIS","RCS_SIZE":null,"COUNTRY_CODE":null,"LAUNCH_DATE":null,"SITE":null,"DECAY_DATE":"1965-03-13","FILE":"33911","GP_ID":"8699909","TLE_LINE0":"0 COSMOS 57 DEB","TLE_LINE1":"1 01157U 65012 BM 65067.96442123  .05087602 +00000-0 +00000-0 0  9991","TLE_LINE2":"2 01157 064.5628 244.2762 0767833 165.7110 196.5884 16.18125151002339"},{"CCSDS_OMM_VERS":"2.0","COMMENT":"GENERATED VIA SPACE-TRACK.ORG API","CREATION_DATE":"2004-08-15T23:35:38","ORIGINATOR":"18 SPCS","OBJECT_NAME":"COSMOS 57 DEB","OBJECT_ID":"1965-012AV","CENTER_NAME":"EARTH","REF_FRAME":"TEME","TIME_SYSTEM":"UTC","MEAN_ELEMENT_THEORY":"SGP4","EPOCH":"1965-03-09T00:09:39.477887","MEAN_MOTION":"15.86221032","ECCENTRICITY":"0.02025980","INCLINATION":"64.6837","RA_OF_ASC_NODE":"247.7247","ARG_OF_PERICENTER":"75.0514","MEAN_ANOMALY":"287.1909","EPHEMERIS_TYPE":"0","CLASSIFICATION_TYPE":"U","NORAD_CAT_ID":"1141","ELEMENT_SET_NO":"999","REV_AT_EPOCH":"231","BSTAR":"0.00000000000000","MEAN_MOTION_DOT":"0.01033267","MEAN_MOTION_DDOT":"0.0021284000000","SEMIMAJOR_AXIS":"6691.030","PERIOD":"90.781","APOAPSIS":"448.454","PERIAPSIS":"177.336","OBJECT_TYPE":"DEBRIS","RCS_SIZE":null,"COUNTRY_CODE":null,"LAUNCH_DATE":null,"SITE":null,"DECAY_DATE":"1965-03-10","FILE":"33911","GP_ID":"8699881","TLE_LINE0":"0 COSMOS 57 DEB","TLE_LINE1":"1 01141U 65012 AV 65068.00670692  .01033267 +21284-2 +00000-0 0  9997","TLE_LINE2":"2 01141 064.6837 247.7247 0202598 075.0514 287.1909 15.86221032002316"},{"CCSDS_OMM_VERS":"2.0","COMMENT":"GENERATED VIA SPACE-TRACK.ORG API","CREATION_DATE":"2004-08-15T23:35:38","ORIGINATOR":"18 SPCS","OBJECT_NAME":"COSMOS 57 DEB","OBJECT_ID":"1965-012BX","CENTER_NAME":"EARTH","REF_FRAME":"TEME","TIME_SYSTEM":"UTC","MEAN_ELEMENT_THEORY":"SGP4","EPOCH":"1965-03-09T01:04:19.949375","MEAN_MOTION":"15.79934337","ECCENTRICITY":"0.02419530","INCLINATION":"64.7370","RA_OF_ASC_NODE":"247.6006","ARG_OF_PERICENTER":"68.1354","MEAN_ANOMALY":"294.4203","EPHEMERIS_TYPE":"0","CLASSIFICATION_TYPE":"U","NORAD_CAT_ID":"1167","ELEMENT_SET_NO":"999","REV_AT_EPOCH":"189","BSTAR":"0.00000000000000","MEAN_MOTION_DOT":"0.00532419","MEAN_MOTION_DDOT":"0.0005314800000","SEMIMAJOR_AXIS":"6708.767","PERIOD":"91.143","APOAPSIS":"492.953","PERIAPSIS":"168.312","OBJECT_TYPE":"DEBRIS","RCS_SIZE":null,"COUNTRY_CODE":null,"LAUNCH_DATE":null,"SITE":null,"DECAY_DATE":"1965-03-20","FILE":"33911","GP_ID":"8699923","TLE_LINE0":"0 COSMOS 57 DEB","TLE_LINE1":"1 01167U 65012 BX 65068.04467534  .00532419 +53148-3 +00000-0 0  9995","TLE_LINE2":"2 01167 064.7370 247.6006 0241953 068.1354 294.4203 15.79934337001893"},{"CCSDS_OMM_VERS":"2.0","COMMENT":"GENERATED VIA SPACE-TRACK.ORG API","CREATION_DATE":"2004-08-15T23:35:38","ORIGINATOR":"18 SPCS","OBJECT_NAME":"COSMOS 57 DEB","OBJECT_ID":"1965-012DR","CENTER_NAME":"EARTH","REF_FRAME":"TEME","TIME_SYSTEM":"UTC","MEAN_ELEMENT_THEORY":"SGP4","EPOCH":"1965-03-09T19:51:33.472800","MEAN_MOTION":"15.98352107","ECCENTRICITY":"0.01725940","INCLINATION":"64.8298","RA_OF_ASC_NODE":"244.4302","ARG_OF_PERICENTER":"66.8271","MEAN_ANOMALY":"294.9817","EPHEMERIS_TYPE":"0","CLASSIFICATION_TYPE":"U","NORAD_CAT_ID":"1214","ELEMENT_SET_NO":"999","REV_AT_EPOCH":"257","BSTAR":"0.00000000000000","MEAN_MOTION_DOT":"0.00401157","MEAN_MOTION_DDOT":"0.0003677800000","SEMIMAJOR_AXIS":"6657.131","PERIOD":"90.092","APOAPSIS":"393.894","PERIAPSIS":"164.098","OBJECT_TYPE":"DEBRIS","RCS_SIZE":null,"COUNTRY_CODE":null,"LAUNCH_DATE":null,"SITE":null,"DECAY_DATE":"1965-03-20","FILE":"33911","GP_ID":"8699981","TLE_LINE0":"0 COSMOS 57 DEB","TLE_LINE1":"1 01214U 65012 DR 65068.82747075  .00401157 +36778-3 +00000-0 0  9999","TLE_LINE2":"2 01214 064.8298 244.4302 0172594 066.8271 294.9817 15.98352107002579"}]